STARLINK-4030           
1 52698U 22053AU  26068.52792690  .00000645  00000+0  58613-4 0  9995
2 52698  53.2175 149.8407 0001291  96.0311 264.0828 15.08835058211053
STARLINK-5895           
1 55964U 23037BC  26068.93316413  .00010921  00000+0  72850-3 0  9993
2 55964  69.9972 260.0280 0004986 264.4993  95.5602 15.07243555164606
